HAWK-5A                 
1 52757U 22057AB  26182.16722905  .00024397  00000+0  40810-3 0  9993
2 52757  97.6618 341.9228 0004525  30.4342 329.7171 15.51886055228518
HAWK-6B                 
1 55324U 23011A   26182.60926473  .00004501  00000+0  19518-3 0  9998
2 55324  40.4984 267.9482 0001964 158.3924 201.6968 15.23056595190047
HAWK-6C                 
1 55326U 23011C   26182.60863994  .00004515  00000+0  19577-3 0  9998
2 55326  40.4969 264.7884 0002344 136.1548 223.9447 15.23054017190059
HAWK-6A                 
1 55327U 23011D   26182.60867614  .00004622  00000+0  20020-3 0  9996
2 55327  40.4980 266.4142 0001902 134.5664 225.5301 15.23055151190056
HAWK-7A                 
1 56191U 23054P   26182.26091931  .00006926  00000+0  26001-3 0  9990
2 56191  97.2686  69.2408 0003066  23.5935 336.5444 15.27507008179172
HAWK-7B                 
1 56193U 23054R   26182.26085182  .00006898  00000+0  25898-3 0  9994
2 56193  97.2712  67.5096 0002775  42.3666 317.7787 15.27505555179170
HAWK-7C                 
1 56200U 23054Y   26182.26073572  .00006787  00000+0  25487-3 0  9994
2 56200  97.2689  68.2737 0002526  31.3359 328.8030 15.27504854179178
