OBJECT_NAME,OBJECT_ID,EPOCH,MEAN_MOTION,ECCENTRICITY,INCLINATION,RA_OF_ASC_NODE,ARG_OF_PERICENTER,MEAN_ANOMALY,EPHEMERIS_TYPE,CLASSIFICATION_TYPE,NORAD_CAT_ID,ELEMENT_SET_NO,REV_AT_EPOCH,BSTAR,MEAN_MOTION_DOT,MEAN_MOTION_DDOT
HAWK-5A,2022-057AB,2026-07-01T04:00:48.589920,15.51886055,.00045254,97.6618,341.9228,30.4342,329.7171,0,U,52757,999,22851,.40809666E-3,.24397E-3,0
HAWK-6B,2023-011A,2026-07-01T14:37:20.472672,15.23056595,.00019649,40.4984,267.9482,158.3924,201.6968,0,U,55324,999,19004,.19517638E-3,.4501E-4,0
HAWK-6C,2023-011C,2026-07-01T14:36:26.490816,15.23054017,.00023442,40.4969,264.7884,136.1548,223.9447,0,U,55326,999,19005,.19577329E-3,.4515E-4,0
HAWK-6A,2023-011D,2026-07-01T14:36:29.618496,15.23055151,.00019027,40.4980,266.4142,134.5664,225.5301,0,U,55327,999,19005,.20019677E-3,.4622E-4,0
HAWK-7A,2023-054P,2026-07-01T06:15:43.428384,15.27507008,.00030666,97.2686,69.2408,23.5935,336.5444,0,U,56191,999,17917,.26001145E-3,.6926E-4,0
HAWK-7B,2023-054R,2026-07-01T06:15:37.597248,15.27505555,.00027757,97.2712,67.5096,42.3666,317.7787,0,U,56193,999,17917,.25897977E-3,.6898E-4,0
HAWK-7C,2023-054Y,2026-07-01T06:15:27.566208,15.27504854,.00025268,97.2689,68.2737,31.3359,328.8030,0,U,56200,999,17917,.25486685E-3,.6787E-4,0
